[{"OBJECT_NAME":"STARLINK-5456","OBJECT_ID":"2023-021AR","EPOCH":"2026-03-09T14:20:41.522784","MEAN_MOTION":14.98329684,"ECCENTRICITY":0.0002996,"INCLINATION":70.0012,"RA_OF_ASC_NODE":164.5749,"ARG_OF_PERICENTER":263.0991,"MEAN_ANOMALY":96.9827,"EPHEMERIS_TYPE":0,"CLASSIFICATION_TYPE":"U","NORAD_CAT_ID":55667,"ELEMENT_SET_NO":999,"REV_AT_EPOCH":16927,"BSTAR":-7.6718e-5,"MEAN_MOTION_DOT":-1.008e-5,"MEAN_MOTION_DDOT":0},{"OBJECT_NAME":"NTS (CANX-6)","OBJECT_ID":"2008-021B","EPOCH":"2026-03-09T21:01:43.854528","MEAN_MOTION":15.02479058,"ECCENTRICITY":0.00123192,"INCLINATION":97.9039,"RA_OF_ASC_NODE":46.2456,"ARG_OF_PERICENTER":105.3107,"MEAN_ANOMALY":254.9479,"EPHEMERIS_TYPE":0,"CLASSIFICATION_TYPE":"U","NORAD_CAT_ID":32784,"ELEMENT_SET_NO":999,"REV_AT_EPOCH":96921,"BSTAR":0.00045679857,"MEAN_MOTION_DOT":6.01e-5,"MEAN_MOTION_DDOT":0}]
